CTC2_L_00526001-01
1 63793U 23156CJ  26070.40849537  .00000000  00000+0  00000-0 0  9999
2 63793  97.5000   0.0000 0000000   0.0000   0.0000 14.57888518    17
CTC2_L_00526001-02
1 63794U 24984OH  26070.40849537  .00000000  00000+0  00000-0 0  9990
2 63794  97.5000   0.0000 0000000   0.0000  90.0000 14.57888518    17
CTC2_L_00526001-03
1 63795U 23717BF  26070.40849537  .00000000  00000+0  00000-0 0  9994
2 63795  97.5000   0.0000 0000000   0.0000 180.0000 14.57888518    18
CTC2_L_00526001-04
1 63796U 26040UI  26070.40849537  .00000000  00000+0  00000-0 0  9997
2 63796  97.5000   0.0000 0000000   0.0000 270.0000 14.57888518    19
CTC2_L_00526002-01
1 63797U 23395WC  26070.40849537  .00000000  00000+0  00000-0 0  9998
2 63797  97.5000  12.0000 0000000   0.0000  12.0000 14.57888518    17
CTC2_L_00526002-02
1 63798U 23725UJ  26070.40849537  .00000000  00000+0  00000-0 0  9996
2 63798  97.5000  12.0000 0000000   0.0000 102.0000 14.57888518    18
CTC2_L_00526002-03
1 63799U 24177OK  26070.40849537  .00000000  00000+0  00000-0 0  9999
2 63799  97.5000  12.0000 0000000   0.0000 192.0000 14.57888518    18
CTC2_L_00526002-04
1 63800U 25694CI  26070.40849537  .00000000  00000+0  00000-0 0  9997
2 63800  97.5000  12.0000 0000000   0.0000 282.0000 14.57888518    11
CTC2_L_00526003-01
1 63801U 23196JW  26070.40849537  .00000000  00000+0  00000-0 0  9993
2 63801  97.5000  24.0000 0000000   0.0000  24.0000 14.57888518    19
CTC2_L_00526003-02
1 63802U 25768DJ  26070.40849537  .00000000  00000+0  00000-0 0  9991
2 63802  97.5000  24.0000 0000000   0.0000 114.0000 14.57888518    10
CTC2_L_00526003-03
1 63803U 25987ZB  26070.40849537  .00000000  00000+0  00000-0 0  9995
2 63803  97.5000  24.0000 0000000   0.0000 204.0000 14.57888518    11
CTC2_L_00526003-04
1 63804U 22417XE  26070.40849537  .00000000  00000+0  00000-0 0  9991
2 63804  97.5000  24.0000 0000000   0.0000 294.0000 14.57888518    11
CTC2_L_00526004-01
1 63805U 26257FQ  26070.40849537  .00000000  00000+0  00000-0 0  9998
2 63805  97.5000  36.0000 0000000   0.0000  36.0000 14.57888518    19
CTC2_L_00526004-02
1 63806U 22120EZ  26070.40849537  .00000000  00000+0  00000-0 0  9994
2 63806  97.5000  36.0000 0000000   0.0000 126.0000 14.57888518    10
CTC2_L_00526004-03
1 63807U 22442YR  26070.40849537  .00000000  00000+0  00000-0 0  9992
2 63807  97.5000  36.0000 0000000   0.0000 216.0000 14.57888518    11
CTC2_L_00526004-04
1 63808U 25760JB  26070.40849537  .00000000  00000+0  00000-0 0  9999
2 63808  97.5000  36.0000 0000000   0.0000 306.0000 14.57888518    12
CTC2_L_00526005-01
1 63809U 24180LR  26070.40849537  .00000000  00000+0  00000-0 0  9995
2 63809  97.5000  48.0000 0000000   0.0000  48.0000 14.57888518    19
CTC2_L_00526005-02
1 63810U 24872XG  26070.40849537  .00000000  00000+0  00000-0 0  9995
2 63810  97.5000  48.0000 0000000   0.0000 138.0000 14.57888518    11
CTC2_L_00526005-03
1 63811U 22005DF  26070.40849537  .00000000  00000+0  00000-0 0  9992
2 63811  97.5000  48.0000 0000000   0.0000 228.0000 14.57888518    12
CTC2_L_00526005-04
1 63812U 25600VK  26070.40849537  .00000000  00000+0  00000-0 0  9997
2 63812  97.5000  48.0000 0000000   0.0000 318.0000 14.57888518    13
CTC2_L_00526006-01
1 63813U 24656VH  26070.40849537  .00000000  00000+0  00000-0 0  9998
2 63813  97.5000  60.0000 0000000   0.0000  60.0000 14.57888518    12
CTC2_L_00526006-02
1 63814U 24827PO  26070.40849537  .00000000  00000+0  00000-0 0  9999
2 63814  97.5000  60.0000 0000000   0.0000 150.0000 14.57888518    13
CTC2_L_00526006-03
1 63815U 24957E   26070.40849537  .00000000  00000+0  00000-0 0  9994
2 63815  97.5000  60.0000 0000000   0.0000 240.0000 14.57888518    14
CTC2_L_00526006-04
1 63816U 23038DY  26070.40849537  .00000000  00000+0  00000-0 0  9994
2 63816  97.5000  60.0000 0000000   0.0000 330.0000 14.57888518    15
CTC2_L_00526007-01
1 63817U 24449EI  26070.40849537  .00000000  00000+0  00000-0 0  9992
2 63817  97.5000  72.0000 0000000   0.0000  72.0000 14.57888518    12
CTC2_L_00526007-02
1 63818U 24689DJ  26070.40849537  .00000000  00000+0  00000-0 0  9999
2 63818  97.5000  72.0000 0000000   0.0000 162.0000 14.57888518    13
CTC2_L_00526007-03
1 63819U 22387RC  26070.40849537  .00000000  00000+0  00000-0 0  9993
2 63819  97.5000  72.0000 0000000   0.0000 252.0000 14.57888518    14
CTC2_L_00526007-04
1 63820U 24378RP  26070.40849537  .00000000  00000+0  00000-0 0  9997
2 63820  97.5000  72.0000 0000000   0.0000 342.0000 14.57888518    16
CTC2_L_00526008-01
1 63821U 26024SS  26070.40849537  .00000000  00000+0  00000-0 0  9998
2 63821  97.5000  84.0000 0000000   0.0000  84.0000 14.57888518    13
CTC2_L_00526008-02
1 63822U 25791PH  26070.40849537  .00000000  00000+0  00000-0 0  9999
2 63822  97.5000  84.0000 0000000   0.0000 174.0000 14.57888518    14
CTC2_L_00526008-03
1 63823U 25730QS  26070.40849537  .00000000  00000+0  00000-0 0  9993
2 63823  97.5000  84.0000 0000000   0.0000 264.0000 14.57888518    15
CTC2_L_00526008-04
1 63824U 23584BZ  26070.40849537  .00000000  00000+0  00000-0 0  9999
2 63824  97.5000  84.0000 0000000   0.0000 354.0000 14.57888518    16
CTC2_L_00526009-01
1 63825U 24927TP  26070.40849537  .00000000  00000+0  00000-0 0  9992
2 63825  97.5000  96.0000 0000000   0.0000  96.0000 14.57888518    13
CTC2_L_00526009-02
1 63826U 23744AV  26070.40849537  .00000000  00000+0  00000-0 0  9999
2 63826  97.5000  96.0000 0000000   0.0000 186.0000 14.57888518    14
CTC2_L_00526009-03
1 63827U 22279JI  26070.40849537  .00000000  00000+0  00000-0 0  9992
2 63827  97.5000  96.0000 0000000   0.0000 276.0000 14.57888518    15
CTC2_L_00526009-04
1 63828U 22474NF  26070.40849537  .00000000  00000+0  00000-0 0  9990
2 63828  97.5000  96.0000 0000000   0.0000   6.0000 14.57888518    17
CTC2_L_00526010-01
1 63829U 25289NM  26070.40849537  .00000000  00000+0  00000-0 0  9998
2 63829  97.5000 108.0000 0000000   0.0000 108.0000 14.57888518    15
CTC2_L_00526010-02
1 63830U 23222PQ  26070.40849537  .00000000  00000+0  00000-0 0  9995
2 63830  97.5000 108.0000 0000000   0.0000 198.0000 14.57888518    16
CTC2_L_00526010-03
1 63831U 22012RA  26070.40849537  .00000000  00000+0  00000-0 0  9992
2 63831  97.5000 108.0000 0000000   0.0000 288.0000 14.57888518    17
CTC2_L_00526010-04
1 63832U 25883EP  26070.40849537  .00000000  00000+0  00000-0 0  9992
2 63832  97.5000 108.0000 0000000   0.0000  18.0000 14.57888518    19
CTC2_L_00526011-01
1 63833U 22525LS  26070.40849537  .00000000  00000+0  00000-0 0  9993
2 63833  97.5000 120.0000 0000000   0.0000 120.0000 14.57888518    18
CTC2_L_00526011-02
1 63834U 24050NU  26070.40849537  .00000000  00000+0  00000-0 0  9999
2 63834  97.5000 120.0000 0000000   0.0000 210.0000 14.57888518    19
CTC2_L_00526011-03
1 63835U 26295CT  26070.40849537  .00000000  00000+0  00000-0 0  9993
2 63835  97.5000 120.0000 0000000   0.0000 300.0000 14.57888518    10
CTC2_L_00526011-04
1 63836U 23155KO  26070.40849537  .00000000  00000+0  00000-0 0  9996
2 63836  97.5000 120.0000 0000000   0.0000  30.0000 14.57888518    11
CTC2_L_00526012-01
1 63837U 22173WK  26070.40849537  .00000000  00000+0  00000-0 0  9996
2 63837  97.5000 132.0000 0000000   0.0000 132.0000 14.57888518    18
CTC2_L_00526012-02
1 63838U 22087EJ  26070.40849537  .00000000  00000+0  00000-0 0  9991
2 63838  97.5000 132.0000 0000000   0.0000 222.0000 14.57888518    19
CTC2_L_00526012-03
1 63839U 24027YE  26070.40849537  .00000000  00000+0  00000-0 0  9998
2 63839  97.5000 132.0000 0000000   0.0000 312.0000 14.57888518    10
CTC2_L_00526012-04
1 63840U 24283ZT  26070.40849537  .00000000  00000+0  00000-0 0  9994
2 63840  97.5000 132.0000 0000000   0.0000  42.0000 14.57888518    12
CTC2_L_00526013-01
1 63841U 26761DI  26070.40849537  .00000000  00000+0  00000-0 0  9998
2 63841  97.5000 144.0000 0000000   0.0000 144.0000 14.57888518    19
CTC2_L_00526013-02
1 63842U 25027SE  26070.40849537  .00000000  00000+0  00000-0 0  9993
2 63842  97.5000 144.0000 0000000   0.0000 234.0000 14.57888518    10
CTC2_L_00526013-03
1 63843U 22325KC  26070.40849537  .00000000  00000+0  00000-0 0  9992
2 63843  97.5000 144.0000 0000000   0.0000 324.0000 14.57888518    11
CTC2_L_00526013-04
1 63844U 24727DA  26070.40849537  .00000000  00000+0  00000-0 0  9991
2 63844  97.5000 144.0000 0000000   0.0000  54.0000 14.57888518    12
CTC2_L_00526014-01
1 63845U 24216WI  26070.40849537  .00000000  00000+0  00000-0 0  9995
2 63845  97.5000 156.0000 0000000   0.0000 156.0000 14.57888518    19
CTC2_L_00526014-02
1 63846U 25178FI  26070.40849537  .00000000  00000+0  00000-0 0  9994
2 63846  97.5000 156.0000 0000000   0.0000 246.0000 14.57888518    10
CTC2_L_00526014-03
1 63847U 24232KW  26070.40849537  .00000000  00000+0  00000-0 0  9995
2 63847  97.5000 156.0000 0000000   0.0000 336.0000 14.57888518    11
CTC2_L_00526014-04
1 63848U 26709GM  26070.40849537  .00000000  00000+0  00000-0 0  9997
2 63848  97.5000 156.0000 0000000   0.0000  66.0000 14.57888518    12
CTC2_L_00526015-01
1 63849U 23187EF  26070.40849537  .00000000  00000+0  00000-0 0  9995
2 63849  97.5000 168.0000 0000000   0.0000 168.0000 14.57888518    19
CTC2_L_00526015-02
1 63850U 26131TB  26070.40849537  .00000000  00000+0  00000-0 0  9999
2 63850  97.5000 168.0000 0000000   0.0000 258.0000 14.57888518    11
CTC2_L_00526015-03
1 63851U 22498KV  26070.40849537  .00000000  00000+0  00000-0 0  9992
2 63851  97.5000 168.0000 0000000   0.0000 348.0000 14.57888518    12
CTC2_L_00526015-04
1 63852U 25111KO  26070.40849537  .00000000  00000+0  00000-0 0  9998
2 63852  97.5000 168.0000 0000000   0.0000  78.0000 14.57888518    13
CTC2_L_00526016-01
1 63853U 24881OX  26070.40849537  .00000000  00000+0  00000-0 0  9992
2 63853  97.5000 180.0000 0000000   0.0000 180.0000 14.57888518    12
CTC2_L_00526016-02
1 63854U 25288NK  26070.40849537  .00000000  00000+0  00000-0 0  9995
2 63854  97.5000 180.0000 0000000   0.0000 270.0000 14.57888518    13
